{"type": "FeatureCollection", "features": [ {"type": "Feature", "properties": {"norad_id": 66909, "name": "SILVERSAT", "group": "last-30-days", "lat": 29.87558635274222, "lon": -109.24339071819836, "alt_km": 406.93306352307627, "timestamp": "2025-12-21T16:47:53.451252+00:00", "meta": {"OBJECT_NAME": "SILVERSAT", "OBJECT_ID": "1998-067XV", "EPOCH": "2025-12-21T00:44:56.475744", "MEAN_MOTION": 15.52677939, "ECCENTRICITY": 0.0003815, "INCLINATION": 51.6312, "RA_OF_ASC_NODE": 101.1583, "ARG_OF_PERICENTER": 279.3746, "MEAN_ANOMALY": 80.6813, "EPHEMERIS_TYPE": 0, "CLASSIFICATION_TYPE": "U", "NORAD_CAT_ID": 66909, "ELEMENT_SET_NO": 999, "REV_AT_EPOCH": 290, "BSTAR": 0.00085685378, "MEAN_MOTION_DOT": 0.00053716, "MEAN_MOTION_DDOT": 0}, "tle": {"line1": "1 66909U 98067XV  25355.03120921  .00053716  00000+0  85685-3 0  9994", "line2": "2 66909  51.6312 101.1583 0003815 279.3746  80.6813 15.52677939  2905"}}, "geometry": {"type": "Point", "coordinates": [-109.24339071819836, 29.87558635274222]}}, {"type": "Feature", "properties": {"norad_id": 66910, "name": "1998-067XW", "group": "last-30-days", "lat": 22.72291533818747, "lon": -101.56897254522505, "alt_km": 406.853935037675, "timestamp": "2025-12-21T16:47:53.451263+00:00", "meta": {"OBJECT_NAME": "1998-067XW", "OBJECT_ID": "1998-067XW", "EPOCH": "2025-12-21T00:42:22.362336", "MEAN_MOTION": 15.52668327, "ECCENTRICITY": 0.00041762, "INCLINATION": 51.6309, "RA_OF_ASC_NODE": 101.1459, "ARG_OF_PERICENTER": 252.7985, "MEAN_ANOMALY": 107.2548, "EPHEMERIS_TYPE": 0, "CLASSIFICATION_TYPE": "U", "NORAD_CAT_ID": 66910, "ELEMENT_SET_NO": 999, "REV_AT_EPOCH": 290, "BSTAR": 0.00074556419, "MEAN_MOTION_DOT": 0.00046622, "MEAN_MOTION_DDOT": 0}, "tle": {"line1": "1 66910U 98067XW  25355.02942549  .00046622  00000+0  74556-3 0  9996", "line2": "2 66910  51.6309 101.1459 0004176 252.7985 107.2548 15.52668327  2908"}}, "geometry": {"type": "Point", "coordinates": [-101.56897254522505, 22.72291533818747]}}, {"type": "Feature", "properties": {"norad_id": 66911, "name": "1998-067XX", "group": "last-30-days", "lat": 10.879070452808264, "lon": -90.98170388318796, "alt_km": 406.9222221721302, "timestamp": "2025-12-21T16:47:53.451274+00:00", "meta": {"OBJECT_NAME": "1998-067XX", "OBJECT_ID": "1998-067XX", "EPOCH": "2025-12-21T06:49:15.408768", "MEAN_MOTION": 15.53123462, "ECCENTRICITY": 0.0003853, "INCLINATION": 51.6308, "RA_OF_ASC_NODE": 99.8474, "ARG_OF_PERICENTER": 259.7262, "MEAN_ANOMALY": 100.3293, "EPHEMERIS_TYPE": 0, "CLASSIFICATION_TYPE": "U", "NORAD_CAT_ID": 66911, "ELEMENT_SET_NO": 999, "REV_AT_EPOCH": 293, "BSTAR": 0.00094843, "MEAN_MOTION_DOT": 0.00060532, "MEAN_MOTION_DDOT": 0}, "tle": {"line1": "1 66911U 98067XX  25355.28420612  .00060532  00000+0  94843-3 0  9994", "line2": "2 66911  51.6308  99.8474 0003853 259.7262 100.3293 15.53123462  2935"}}, "geometry": {"type": "Point", "coordinates": [-90.98170388318796, 10.879070452808264]}}, {"type": "Feature", "properties": {"norad_id": 66912, "name": "1998-067XY", "group": "last-30-days", "lat": 47.471328118061145, "lon": -141.84388708828598, "alt_km": 407.08906978936557, "timestamp": "2025-12-21T16:47:53.451285+00:00", "meta": {"OBJECT_NAME": "1998-067XY", "OBJECT_ID": "1998-067XY", "EPOCH": "2025-12-21T11:41:25.287072", "MEAN_MOTION": 15.51934859, "ECCENTRICITY": 0.0004003, "INCLINATION": 51.6317, "RA_OF_ASC_NODE": 98.9521, "ARG_OF_PERICENTER": 271.7448, "MEAN_ANOMALY": 88.3083, "EPHEMERIS_TYPE": 0, "CLASSIFICATION_TYPE": "U", "NORAD_CAT_ID": 66912, "ELEMENT_SET_NO": 999, "REV_AT_EPOCH": 296, "BSTAR": 0.00071547, "MEAN_MOTION_DOT": 0.0004353, "MEAN_MOTION_DDOT": 0}, "tle": {"line1": "1 66912U 98067XY  25355.48709823  .00043530  00000+0  71547-3 0  9996", "line2": "2 66912  51.6317  98.9521 0004003 271.7448  88.3083 15.51934859  2960"}}, "geometry": {"type": "Point", "coordinates": [-141.84388708828598, 47.471328118061145]}}, {"type": "Feature", "properties": {"norad_id": 66913, "name": "2025-284A", "group": "last-30-days", "lat": 10.161691338734983, "lon": 120.17453505419026, "alt_km": 527.8332665640082, "timestamp": "2025-12-21T16:47:53.451296+00:00", "meta": {"OBJECT_NAME": "2025-284A", "OBJECT_ID": "2025-284A", "EPOCH": "2025-12-18T06:24:29.359008", "MEAN_MOTION": 15.16462178, "ECCENTRICITY": 0.00203688, "INCLINATION": 80.4052, "RA_OF_ASC_NODE": 122.7714, "ARG_OF_PERICENTER": 156.4299, "MEAN_ANOMALY": 203.7866, "EPHEMERIS_TYPE": 0, "CLASSIFICATION_TYPE": "U", "NORAD_CAT_ID": 66913, "ELEMENT_SET_NO": 999, "REV_AT_EPOCH": 196, "BSTAR": 0.00046237905, "MEAN_MOTION_DOT": 9.066e-05, "MEAN_MOTION_DDOT": 0}, "tle": {"line1": "1 66913U 25284A   25352.26700647  .00009066  00000+0  46238-3 0  9991", "line2": "2 66913  80.4052 122.7714 0020368 156.4299 203.7866 15.16462178  1964"}}, "geometry": {"type": "Point", "coordinates": [120.17453505419026, 10.161691338734983]}}, {"type": "Feature", "properties": {"norad_id": 66914, "name": "2025-284B", "group": "last-30-days", "lat": 68.57163158564484, "lon": 143.9425141981641, "alt_km": 506.6268921575047, "timestamp": "2025-12-21T16:47:53.451308+00:00", "meta": {"OBJECT_NAME": "2025-284B", "OBJECT_ID": "2025-284B", "EPOCH": "2025-12-16T06:51:11.417184", "MEAN_MOTION": 15.18985981, "ECCENTRICITY": 0.00081793, "INCLINATION": 80.4045, "RA_OF_ASC_NODE": 125.2713, "ARG_OF_PERICENTER": 234.9626, "MEAN_ANOMALY": 125.0834, "EPHEMERIS_TYPE": 0, "CLASSIFICATION_TYPE": "U", "NORAD_CAT_ID": 66914, "ELEMENT_SET_NO": 999, "REV_AT_EPOCH": 166, "BSTAR": 0.00038444995, "MEAN_MOTION_DOT": 8.068e-05, "MEAN_MOTION_DDOT": 0}, "tle": {"line1": "1 66914U 25284B   25350.28554881  .00008068  00000+0  38445-3 0  9991", "line2": "2 66914  80.4045 125.2713 0008179 234.9626 125.0834 15.18985981  1668"}}, "geometry": {"type": "Point", "coordinates": [143.9425141981641, 68.57163158564484]}}, {"type": "Feature", "properties": {"norad_id": 66915, "name": "HULIANWANG DIGUI-105", "group": "last-30-days", "lat": 31.451452518434287, "lon": -130.10851461734907, "alt_km": 882.5762500734627, "timestamp": "2025-12-21T16:47:53.451318+00:00", "meta": {"OBJECT_NAME": "HULIANWANG DIGUI-105", "OBJECT_ID": "2025-285A", "EPOCH": "2025-12-21T12:43:51.036384", "MEAN_MOTION": 14.03718288, "ECCENTRICITY": 0.0008055, "INCLINATION": 50.005, "RA_OF_ASC_NODE": 81.476, "ARG_OF_PERICENTER": 312.0664, "MEAN_ANOMALY": 47.9554, "EPHEMERIS_TYPE": 0, "CLASSIFICATION_TYPE": "U", "NORAD_CAT_ID": 66915, "ELEMENT_SET_NO": 999, "REV_AT_EPOCH": 214, "BSTAR": 0.00010825, "MEAN_MOTION_DOT": 2e-07, "MEAN_MOTION_DDOT": 0}, "tle": {"line1": "1 66915U 25285A   25355.53045181  .00000020  00000+0  10825-3 0  9996", "line2": "2 66915  50.0050  81.4760 0008055 312.0664  47.9554 14.03718288  2148"}}, "geometry": {"type": "Point", "coordinates": [-130.10851461734907, 31.451452518434287]}}, {"type": "Feature", "properties": {"norad_id": 66916, "name": "HULIANWANG DIGUI-106", "group": "last-30-days", "lat": 21.321602952983447, "lon": -118.36588874805432, "alt_km": 882.87279303166, "timestamp": "2025-12-21T16:47:53.451328+00:00", "meta": {"OBJECT_NAME": "HULIANWANG DIGUI-106", "OBJECT_ID": "2025-285B", "EPOCH": "2025-12-21T12:39:41.274720", "MEAN_MOTION": 14.03703218, "ECCENTRICITY": 0.0006832, "INCLINATION": 50.0061, "RA_OF_ASC_NODE": 81.4624, "ARG_OF_PERICENTER": 305.2885, "MEAN_ANOMALY": 54.738, "EPHEMERIS_TYPE": 0, "CLASSIFICATION_TYPE": "U", "NORAD_CAT_ID": 66916, "ELEMENT_SET_NO": 999, "REV_AT_EPOCH": 214, "BSTAR": 0.00011126, "MEAN_MOTION_DOT": 2.5e-07, "MEAN_MOTION_DDOT": 0}, "tle": {"line1": "1 66916U 25285B   25355.52756105  .00000025  00000+0  11126-3 0  9991", "line2": "2 66916  50.0061  81.4624 0006832 305.2885  54.7380 14.03703218  2140"}}, "geometry": {"type": "Point", "coordinates": [-118.36588874805432, 21.321602952983447]}}, {"type": "Feature", "properties": {"norad_id": 66917, "name": "HULIANWANG DIGUI-107", "group": "last-30-days", "lat": 14.539880622024674, "lon": -111.8401564489462, "alt_km": 884.5077903886631, "timestamp": "2025-12-21T16:47:53.451338+00:00", "meta": {"OBJECT_NAME": "HULIANWANG DIGUI-107", "OBJECT_ID": "2025-285C", "EPOCH": "2025-12-21T12:37:03.658656", "MEAN_MOTION": 14.03663138, "ECCENTRICITY": 0.0007494, "INCLINATION": 50.0026, "RA_OF_ASC_NODE": 81.446, "ARG_OF_PERICENTER": 314.8022, "MEAN_ANOMALY": 45.2273, "EPHEMERIS_TYPE": 0, "CLASSIFICATION_TYPE": "U", "NORAD_CAT_ID": 66917, "ELEMENT_SET_NO": 999, "REV_AT_EPOCH": 214, "BSTAR": 9.6163e-05, "MEAN_MOTION_DOT": 1e-08, "MEAN_MOTION_DDOT": 0}, "tle": {"line1": "1 66917U 25285C   25355.52573679  .00000001  00000+0  96163-4 0  9994", "line2": "2 66917  50.0026  81.4460 0007494 314.8022  45.2273 14.03663138  2146"}}, "geometry": {"type": "Point", "coordinates": [-111.8401564489462, 14.539880622024674]}}, {"type": "Feature", "properties": {"norad_id": 66918, "name": "HULIANWANG DIGUI-108", "group": "last-30-days", "lat": 11.74206248334357, "lon": -109.31539391167045, "alt_km": 884.1875639499822, "timestamp": "2025-12-21T16:47:53.451348+00:00", "meta": {"OBJECT_NAME": "HULIANWANG DIGUI-108", "OBJECT_ID": "2025-285D", "EPOCH": "2025-12-21T12:35:59.298432", "MEAN_MOTION": 14.03602212, "ECCENTRICITY": 0.0006628, "INCLINATION": 50.0048, "RA_OF_ASC_NODE": 81.4461, "ARG_OF_PERICENTER": 309.3727, "MEAN_ANOMALY": 50.659, "EPHEMERIS_TYPE": 0, "CLASSIFICATION_TYPE": "U", "NORAD_CAT_ID": 66918, "ELEMENT_SET_NO": 999, "REV_AT_EPOCH": 214, "BSTAR": 0.00010783, "MEAN_MOTION_DOT": 1.9e-07, "MEAN_MOTION_DDOT": 0}, "tle": {"line1": "1 66918U 25285D   25355.52499188  .00000019  00000+0  10783-3 0  9999", "line2": "2 66918  50.0048  81.4461 0006628 309.3727  50.6590 14.03602212  2149"}}, "geometry": {"type": "Point", "coordinates": [-109.31539391167045, 11.74206248334357]}}]}